CCSDS_OMM_VERS = 2.0
CREATION_DATE  = 
ORIGINATOR     = 

OBJECT_NAME    = SL-14 R/B
OBJECT_ID      = 1986-046B
CENTER_NAME    = EARTH
REF_FRAME      = TEME
TIME_SYSTEM    = UTC
MEAN_ELEMENT_THEORY = SGP/SGP4

EPOCH          = 2026-02-05T04:58:21.839808
MEAN_MOTION    = 14.85558843
ECCENTRICITY   = .00224849
INCLINATION    = 82.4820
RA_OF_ASC_NODE = 110.8770
ARG_OF_PERICENTER = 339.0169
MEAN_ANOMALY   = 21.0122

EPHEMERIS_TYPE = 0
CLASSIFICATION_TYPE = U
NORAD_CAT_ID   = 16792
ELEMENT_SET_NO = 999
REV_AT_EPOCH   = 12158
BSTAR          = .73984435E-4
MEAN_MOTION_DOT = .666E-5
MEAN_MOTION_DDOT = 0

CCSDS_OMM_VERS = 2.0
CREATION_DATE  = 
ORIGINATOR     = 

OBJECT_NAME    = SL-14 R/B
OBJECT_ID      = 1986-055B
CENTER_NAME    = EARTH
REF_FRAME      = TEME
TIME_SYSTEM    = UTC
MEAN_ELEMENT_THEORY = SGP/SGP4

EPOCH          = 2026-02-04T21:05:51.844128
MEAN_MOTION    = 14.85606764
ECCENTRICITY   = .00203962
INCLINATION    = 82.5231
RA_OF_ASC_NODE = 157.5026
ARG_OF_PERICENTER = 81.6196
MEAN_ANOMALY   = 43.7109

EPHEMERIS_TYPE = 0
CLASSIFICATION_TYPE = U
NORAD_CAT_ID   = 16882
ELEMENT_SET_NO = 999
REV_AT_EPOCH   = 11449
BSTAR          = .78824908E-4
MEAN_MOTION_DOT = .709E-5
MEAN_MOTION_DDOT = 0

CCSDS_OMM_VERS = 2.0
CREATION_DATE  = 
ORIGINATOR     = 

OBJECT_NAME    = AJISAI (EGS)
OBJECT_ID      = 1986-061A
CENTER_NAME    = EARTH
REF_FRAME      = TEME
TIME_SYSTEM    = UTC
MEAN_ELEMENT_THEORY = SGP/SGP4

EPOCH          = 2026-02-05T04:28:41.039040
MEAN_MOTION    = 12.44515349
ECCENTRICITY   = .00112415
INCLINATION    = 50.0067
RA_OF_ASC_NODE = 193.2944
ARG_OF_PERICENTER = 203.3362
MEAN_ANOMALY   = 205.4039

EPHEMERIS_TYPE = 0
CLASSIFICATION_TYPE = U
NORAD_CAT_ID   = 16908
ELEMENT_SET_NO = 999
REV_AT_EPOCH   = 46395
BSTAR          = -.2873816E-4
MEAN_MOTION_DOT = -.101E-5
MEAN_MOTION_DDOT = 0

CCSDS_OMM_VERS = 2.0
CREATION_DATE  = 
ORIGINATOR     = 

OBJECT_NAME    = COSMOS 1812
OBJECT_ID      = 1987-003A
CENTER_NAME    = EARTH
REF_FRAME      = TEME
TIME_SYSTEM    = UTC
MEAN_ELEMENT_THEORY = SGP/SGP4

EPOCH          = 2026-02-05T03:52:50.562912
MEAN_MOTION    = 15.93022379
ECCENTRICITY   = .00009219
INCLINATION    = 82.4772
RA_OF_ASC_NODE = 232.4426
ARG_OF_PERICENTER = 333.5881
MEAN_ANOMALY   = 26.5346

EPHEMERIS_TYPE = 0
CLASSIFICATION_TYPE = U
NORAD_CAT_ID   = 17295
ELEMENT_SET_NO = 999
REV_AT_EPOCH   = 13926
BSTAR          = .86723254E-3
MEAN_MOTION_DOT = .301065E-2
MEAN_MOTION_DDOT = .32970755E-4

CCSDS_OMM_VERS = 2.0
CREATION_DATE  = 
ORIGINATOR     = 

OBJECT_NAME    = SL-14 R/B
OBJECT_ID      = 1987-024B
CENTER_NAME    = EARTH
REF_FRAME      = TEME
TIME_SYSTEM    = UTC
MEAN_ELEMENT_THEORY = SGP/SGP4

EPOCH          = 2026-02-05T06:03:31.089888
MEAN_MOTION    = 14.86100703
ECCENTRICITY   = .00184977
INCLINATION    = 82.5295
RA_OF_ASC_NODE = 123.2491
ARG_OF_PERICENTER = 13.0447
MEAN_ANOMALY   = 347.1244

EPHEMERIS_TYPE = 0
CLASSIFICATION_TYPE = U
NORAD_CAT_ID   = 17567
ELEMENT_SET_NO = 999
REV_AT_EPOCH   = 8331
BSTAR          = .76326721E-4
MEAN_MOTION_DOT = .695E-5
MEAN_MOTION_DDOT = 0

CCSDS_OMM_VERS = 2.0
CREATION_DATE  = 
ORIGINATOR     = 

OBJECT_NAME    = COSMOS 1833
OBJECT_ID      = 1987-027A
CENTER_NAME    = EARTH
REF_FRAME      = TEME
TIME_SYSTEM    = UTC
MEAN_ELEMENT_THEORY = SGP/SGP4

EPOCH          = 2026-02-05T05:25:53.107104
MEAN_MOTION    = 14.13055667
ECCENTRICITY   = .00248498
INCLINATION    = 70.9208
RA_OF_ASC_NODE = 34.2453
ARG_OF_PERICENTER = 257.8554
MEAN_ANOMALY   = 101.9783

EPHEMERIS_TYPE = 0
CLASSIFICATION_TYPE = U
NORAD_CAT_ID   = 17589
ELEMENT_SET_NO = 999
REV_AT_EPOCH   = 573
BSTAR          = .71363057E-4
MEAN_MOTION_DOT = .85E-6
MEAN_MOTION_DDOT = 0

CCSDS_OMM_VERS = 2.0
CREATION_DATE  = 
ORIGINATOR     = 

OBJECT_NAME    = SL-16 R/B
OBJECT_ID      = 1987-027B
CENTER_NAME    = EARTH
REF_FRAME      = TEME
TIME_SYSTEM    = UTC
MEAN_ELEMENT_THEORY = SGP/SGP4

EPOCH          = 2026-02-05T07:03:20.032704
MEAN_MOTION    = 14.17163877
ECCENTRICITY   = .00052804
INCLINATION    = 71.0049
RA_OF_ASC_NODE = 344.7584
ARG_OF_PERICENTER = 197.9155
MEAN_ANOMALY   = 162.1783

EPHEMERIS_TYPE = 0
CLASSIFICATION_TYPE = U
NORAD_CAT_ID   = 17590
ELEMENT_SET_NO = 999
REV_AT_EPOCH   = 1075
BSTAR          = -.495179E-6
MEAN_MOTION_DOT = -.49E-6
MEAN_MOTION_DDOT = 0

CCSDS_OMM_VERS = 2.0
CREATION_DATE  = 
ORIGINATOR     = 

OBJECT_NAME    = SL-14 R/B
OBJECT_ID      = 1987-038B
CENTER_NAME    = EARTH
REF_FRAME      = TEME
TIME_SYSTEM    = UTC
MEAN_ELEMENT_THEORY = SGP/SGP4

EPOCH          = 2026-02-05T05:32:11.642784
MEAN_MOTION    = 14.85336449
ECCENTRICITY   = .00176811
INCLINATION    = 82.5044
RA_OF_ASC_NODE = 327.3772
ARG_OF_PERICENTER = 272.4979
MEAN_ANOMALY   = 87.4212

EPHEMERIS_TYPE = 0
CLASSIFICATION_TYPE = U
NORAD_CAT_ID   = 17912
ELEMENT_SET_NO = 999
REV_AT_EPOCH   = 7441
BSTAR          = .87905175E-4
MEAN_MOTION_DOT = .781E-5
MEAN_MOTION_DDOT = 0

CCSDS_OMM_VERS = 2.0
CREATION_DATE  = 
ORIGINATOR     = 

OBJECT_NAME    = COSMOS 1844
OBJECT_ID      = 1987-041A
CENTER_NAME    = EARTH
REF_FRAME      = TEME
TIME_SYSTEM    = UTC
MEAN_ELEMENT_THEORY = SGP/SGP4

EPOCH          = 2026-02-05T03:42:18.132192
MEAN_MOTION    = 14.14537647
ECCENTRICITY   = .00287685
INCLINATION    = 70.8980
RA_OF_ASC_NODE = 102.8045
ARG_OF_PERICENTER = 70.2454
MEAN_ANOMALY   = 290.1766

EPHEMERIS_TYPE = 0
CLASSIFICATION_TYPE = U
NORAD_CAT_ID   = 17973
ELEMENT_SET_NO = 999
REV_AT_EPOCH   = 99898
BSTAR          = .18351383E-3
MEAN_MOTION_DOT = .305E-5
MEAN_MOTION_DDOT = 0

CCSDS_OMM_VERS = 2.0
CREATION_DATE  = 
ORIGINATOR     = 

OBJECT_NAME    = SL-14 R/B
OBJECT_ID      = 1987-055B
CENTER_NAME    = EARTH
REF_FRAME      = TEME
TIME_SYSTEM    = UTC
MEAN_ELEMENT_THEORY = SGP/SGP4

EPOCH          = 2026-02-05T05:07:05.790144
MEAN_MOTION    = 14.85588802
ECCENTRICITY   = .00220765
INCLINATION    = 82.4991
RA_OF_ASC_NODE = 19.6359
ARG_OF_PERICENTER = 118.8103
MEAN_ANOMALY   = 241.5333

EPHEMERIS_TYPE = 0
CLASSIFICATION_TYPE = U
NORAD_CAT_ID   = 18153
ELEMENT_SET_NO = 999
REV_AT_EPOCH   = 6511
BSTAR          = .81841048E-4
MEAN_MOTION_DOT = .735E-5
MEAN_MOTION_DDOT = 0

CCSDS_OMM_VERS = 2.0
CREATION_DATE  = 
ORIGINATOR     = 

OBJECT_NAME    = COSMOS 1867
OBJECT_ID      = 1987-060A
CENTER_NAME    = EARTH
REF_FRAME      = TEME
TIME_SYSTEM    = UTC
MEAN_ELEMENT_THEORY = SGP/SGP4

EPOCH          = 2026-02-05T00:36:38.631168
MEAN_MOTION    = 14.31497594
ECCENTRICITY   = .00140741
INCLINATION    = 65.0106
RA_OF_ASC_NODE = 38.1783
ARG_OF_PERICENTER = 276.1781
MEAN_ANOMALY   = 83.7700

EPHEMERIS_TYPE = 0
CLASSIFICATION_TYPE = U
NORAD_CAT_ID   = 18187
ELEMENT_SET_NO = 999
REV_AT_EPOCH   = 1526
BSTAR          = .27219167E-4
MEAN_MOTION_DOT = -.28E-6
MEAN_MOTION_DDOT = 0

CCSDS_OMM_VERS = 2.0
CREATION_DATE  = 
ORIGINATOR     = 

OBJECT_NAME    = SL-14 R/B
OBJECT_ID      = 1988-001B
CENTER_NAME    = EARTH
REF_FRAME      = TEME
TIME_SYSTEM    = UTC
MEAN_ELEMENT_THEORY = SGP/SGP4

EPOCH          = 2026-02-05T06:34:07.987584
MEAN_MOTION    = 14.85489131
ECCENTRICITY   = .00177917
INCLINATION    = 82.5105
RA_OF_ASC_NODE = 225.8507
ARG_OF_PERICENTER = 350.4713
MEAN_ANOMALY   = 9.6163

EPHEMERIS_TYPE = 0
CLASSIFICATION_TYPE = U
NORAD_CAT_ID   = 18749
ELEMENT_SET_NO = 999
REV_AT_EPOCH   = 3721
BSTAR          = .72603062E-4
MEAN_MOTION_DOT = .652E-5
MEAN_MOTION_DDOT = 0

