SL-14 R/B               
1 16792U 86046B   26036.20719722  .00000666  00000+0  73984-4 0  9998
2 16792  82.4820 110.8770 0022484 339.0169  21.0122 14.85558843121582
SL-14 R/B               
1 16882U 86055B   26035.87907227  .00000709  00000+0  78825-4 0  9996
2 16882  82.5231 157.5026 0020396  81.6196  43.7109 14.85606764114495
AJISAI (EGS)            
1 16908U 86061A   26036.18658610 -.00000101  00000+0 -28738-4 0  9992
2 16908  50.0067 193.2944 0011241 203.3362 205.4039 12.44515349463952
COSMOS 1812             
1 17295U 87003A   26036.16169633  .00301065  32971-4  86723-3 0  9994
2 17295  82.4772 232.4426 0000921 333.5881  26.5346 15.93022379139260
SL-14 R/B               
1 17567U 87024B   26036.25244317  .00000695  00000+0  76327-4 0  9990
2 17567  82.5295 123.2491 0018497  13.0447 347.1244 14.86100703 83319
COSMOS 1833             
1 17589U 87027A   26036.22630911  .00000085  00000+0  71363-4 0  9991
2 17589  70.9208  34.2453 0024849 257.8554 101.9783 14.13055667  5734
SL-16 R/B               
1 17590U 87027B   26036.29398186 -.00000049  00000+0 -49518-6 0  9996
2 17590  71.0049 344.7584 0005280 197.9155 162.1783 14.17163877 10758
SL-14 R/B               
1 17912U 87038B   26036.23069031  .00000781  00000+0  87905-4 0  9995
2 17912  82.5044 327.3772 0017681 272.4979  87.4212 14.85336449 74416
COSMOS 1844             
1 17973U 87041A   26036.15437653  .00000305  00000+0  18351-3 0  9996
2 17973  70.8980 102.8045 0028768  70.2454 290.1766 14.14537647998980
SL-14 R/B               
1 18153U 87055B   26036.21326146  .00000735  00000+0  81841-4 0  9995
2 18153  82.4991  19.6359 0022076 118.8103 241.5333 14.85588802 65118
COSMOS 1867             
1 18187U 87060A   26036.02544712 -.00000028  00000+0  27219-4 0  9993
2 18187  65.0106  38.1783 0014074 276.1781  83.7700 14.31497594 15269
SL-14 R/B               
1 18749U 88001B   26036.27370356  .00000652  00000+0  72603-4 0  9990
2 18749  82.5105 225.8507 0017791 350.4713   9.6163 14.85489131 37211
